{"type": "FeatureCollection", "features": [ {"type": "Feature", "properties": {"norad_id": 49810, "name": "GSAT0224 (GALILEO 28)", "group": "gnss", "lat": -34.46370562349263, "lon": -39.70937743292946, "alt_km": 23220.586159726856, "timestamp": "2025-12-18T15:47:11.465877+00:00", "meta": {"OBJECT_NAME": "GSAT0224 (GALILEO 28)", "OBJECT_ID": "2021-116B", "EPOCH": "2025-12-16T23:13:52.406688", "MEAN_MOTION": 1.70476122, "ECCENTRICITY": 0.00037953, "INCLINATION": 57.2194, "RA_OF_ASC_NODE": 346.5971, "ARG_OF_PERICENTER": 257.7514, "MEAN_ANOMALY": 102.8295, "EPHEMERIS_TYPE": 0, "CLASSIFICATION_TYPE": "U", "NORAD_CAT_ID": 49810, "ELEMENT_SET_NO": 999, "REV_AT_EPOCH": 2510, "BSTAR": 0, "MEAN_MOTION_DOT": -7.9e-07, "MEAN_MOTION_DDOT": 0}, "tle": {"line1": "1 49810U 21116B   25350.96796767 -.00000079  00000+0  00000+0 0  9990", "line2": "2 49810  57.2194 346.5971 0003795 257.7514 102.8295  1.70476122 25107"}}, "geometry": {"type": "Point", "coordinates": [-39.70937743292946, -34.46370562349263]}}, {"type": "Feature", "properties": {"norad_id": 52984, "name": "COSMOS 2557 (706K)", "group": "gnss", "lat": 14.278872136858993, "lon": 133.82268632444746, "alt_km": 19142.33347223727, "timestamp": "2025-12-18T15:47:11.465888+00:00", "meta": {"OBJECT_NAME": "COSMOS 2557 (706K)", "OBJECT_ID": "2022-075A", "EPOCH": "2025-12-17T23:22:55.877376", "MEAN_MOTION": 2.13101861, "ECCENTRICITY": 0.00136329, "INCLINATION": 64.4068, "RA_OF_ASC_NODE": 320.867, "ARG_OF_PERICENTER": 277.443, "MEAN_ANOMALY": 82.3946, "EPHEMERIS_TYPE": 0, "CLASSIFICATION_TYPE": "U", "NORAD_CAT_ID": 52984, "ELEMENT_SET_NO": 999, "REV_AT_EPOCH": 2685, "BSTAR": 0, "MEAN_MOTION_DOT": -6.7e-07, "MEAN_MOTION_DDOT": 0}, "tle": {"line1": "1 52984U 22075A   25351.97425784 -.00000067  00000+0  00000+0 0  9998", "line2": "2 52984  64.4068 320.8670 0013632 277.4430  82.3946  2.13101861 26852"}}, "geometry": {"type": "Point", "coordinates": [133.82268632444746, 14.278872136858993]}}, {"type": "Feature", "properties": {"norad_id": 54031, "name": "COSMOS 2559 (707K)", "group": "gnss", "lat": -48.98581359687937, "lon": -72.55986917523602, "alt_km": 19146.307651325424, "timestamp": "2025-12-18T15:47:11.465902+00:00", "meta": {"OBJECT_NAME": "COSMOS 2559 (707K)", "OBJECT_ID": "2022-130A", "EPOCH": "2025-12-17T07:46:49.658304", "MEAN_MOTION": 2.13101395, "ECCENTRICITY": 0.00116575, "INCLINATION": 64.3796, "RA_OF_ASC_NODE": 320.9797, "ARG_OF_PERICENTER": 192.1273, "MEAN_ANOMALY": 167.8384, "EPHEMERIS_TYPE": 0, "CLASSIFICATION_TYPE": "U", "NORAD_CAT_ID": 54031, "ELEMENT_SET_NO": 999, "REV_AT_EPOCH": 2481, "BSTAR": 0, "MEAN_MOTION_DOT": -6.8e-07, "MEAN_MOTION_DDOT": 0}, "tle": {"line1": "1 54031U 22130A   25351.32418586 -.00000068  00000+0  00000+0 0  9997", "line2": "2 54031  64.3796 320.9797 0011657 192.1273 167.8384  2.13101395 24819"}}, "geometry": {"type": "Point", "coordinates": [-72.55986917523602, -48.98581359687937]}}, {"type": "Feature", "properties": {"norad_id": 54377, "name": "COSMOS 2564 (761)", "group": "gnss", "lat": 53.33964425278311, "lon": -121.90220836704962, "alt_km": 19141.033224912906, "timestamp": "2025-12-18T15:47:11.465913+00:00", "meta": {"OBJECT_NAME": "COSMOS 2564 (761)", "OBJECT_ID": "2022-161A", "EPOCH": "2025-12-18T02:33:56.803680", "MEAN_MOTION": 2.131021, "ECCENTRICITY": 0.00085677, "INCLINATION": 64.7385, "RA_OF_ASC_NODE": 198.7206, "ARG_OF_PERICENTER": 204.1493, "MEAN_ANOMALY": 155.8928, "EPHEMERIS_TYPE": 0, "CLASSIFICATION_TYPE": "U", "NORAD_CAT_ID": 54377, "ELEMENT_SET_NO": 999, "REV_AT_EPOCH": 2377, "BSTAR": 0, "MEAN_MOTION_DOT": 1.11e-06, "MEAN_MOTION_DDOT": 0}, "tle": {"line1": "1 54377U 22161A   25352.10690745  .00000111  00000+0  00000+0 0  9998", "line2": "2 54377  64.7385 198.7206 0008567 204.1493 155.8928  2.13102100 23770"}}, "geometry": {"type": "Point", "coordinates": [-121.90220836704962, 53.33964425278311]}}, {"type": "Feature", "properties": {"norad_id": 55268, "name": "GPS BIII-6  (PRN 28)", "group": "gnss", "lat": 34.55827966775446, "lon": -53.14203563625628, "alt_km": 20186.209124161465, "timestamp": "2025-12-18T15:47:11.465924+00:00", "meta": {"OBJECT_NAME": "GPS BIII-6  (PRN 28)", "OBJECT_ID": "2023-009A", "EPOCH": "2025-12-17T11:51:56.668896", "MEAN_MOTION": 2.00555417, "ECCENTRICITY": 0.00037978, "INCLINATION": 55.1064, "RA_OF_ASC_NODE": 155.6587, "ARG_OF_PERICENTER": 358.2196, "MEAN_ANOMALY": 17.9493, "EPHEMERIS_TYPE": 0, "CLASSIFICATION_TYPE": "U", "NORAD_CAT_ID": 55268, "ELEMENT_SET_NO": 999, "REV_AT_EPOCH": 2160, "BSTAR": 0, "MEAN_MOTION_DOT": 7.7e-07, "MEAN_MOTION_DDOT": 0}, "tle": {"line1": "1 55268U 23009A   25351.49440589  .00000077  00000+0  00000+0 0  9991", "line2": "2 55268  55.1064 155.6587 0003797 358.2196  17.9493  2.00555417 21607"}}, "geometry": {"type": "Point", "coordinates": [-53.14203563625628, 34.55827966775446]}}, {"type": "Feature", "properties": {"norad_id": 56564, "name": "BEIDOU-3 G4 (C62)", "group": "gnss", "lat": -0.008970584817423667, "lon": 124.3411154316183, "alt_km": 35777.97709330007, "timestamp": "2025-12-18T15:47:11.465936+00:00", "meta": {"OBJECT_NAME": "BEIDOU-3 G4 (C62)", "OBJECT_ID": "2023-066A", "EPOCH": "2025-12-18T05:29:48.091776", "MEAN_MOTION": 1.00271695, "ECCENTRICITY": 0.00027503, "INCLINATION": 0.8034, "RA_OF_ASC_NODE": 302.4816, "ARG_OF_PERICENTER": 226.9983, "MEAN_ANOMALY": 160.1273, "EPHEMERIS_TYPE": 0, "CLASSIFICATION_TYPE": "U", "NORAD_CAT_ID": 56564, "ELEMENT_SET_NO": 999, "REV_AT_EPOCH": 958, "BSTAR": 0, "MEAN_MOTION_DOT": -8.5e-07, "MEAN_MOTION_DDOT": 0}, "tle": {"line1": "1 56564U 23066A   25352.22902884 -.00000085  00000+0  00000+0 0  9997", "line2": "2 56564   0.8034 302.4816 0002750 226.9983 160.1273  1.00271695  9583"}}, "geometry": {"type": "Point", "coordinates": [124.3411154316183, -0.008970584817423667]}}, {"type": "Feature", "properties": {"norad_id": 56759, "name": "NVS-01 (IRNSS-1J)", "group": "gnss", "lat": -0.9671951124064152, "lon": 93.80171162731084, "alt_km": 35822.30325975847, "timestamp": "2025-12-18T15:47:11.465950+00:00", "meta": {"OBJECT_NAME": "NVS-01 (IRNSS-1J)", "OBJECT_ID": "2023-076A", "EPOCH": "2025-12-18T05:21:03.928896", "MEAN_MOTION": 1.00274953, "ECCENTRICITY": 0.00087703, "INCLINATION": 2.6053, "RA_OF_ASC_NODE": 251.403, "ARG_OF_PERICENTER": 15.7559, "MEAN_ANOMALY": 29.7252, "EPHEMERIS_TYPE": 0, "CLASSIFICATION_TYPE": "U", "NORAD_CAT_ID": 56759, "ELEMENT_SET_NO": 999, "REV_AT_EPOCH": 930, "BSTAR": 0, "MEAN_MOTION_DOT": -3.07e-06, "MEAN_MOTION_DDOT": 0}, "tle": {"line1": "1 56759U 23076A   25352.22296214 -.00000307  00000+0  00000+0 0  9994", "line2": "2 56759   2.6053 251.4030 0008770  15.7559  29.7252  1.00274953  9309"}}, "geometry": {"type": "Point", "coordinates": [93.80171162731084, -0.9671951124064152]}}, {"type": "Feature", "properties": {"norad_id": 57517, "name": "COSMOS 2569 (703K)", "group": "gnss", "lat": 45.98071098281706, "lon": 107.25762068322328, "alt_km": 19140.2912745051, "timestamp": "2025-12-18T15:47:11.465962+00:00", "meta": {"OBJECT_NAME": "COSMOS 2569 (703K)", "OBJECT_ID": "2023-114A", "EPOCH": "2025-12-18T02:53:08.324736", "MEAN_MOTION": 2.13104044, "ECCENTRICITY": 0.00107319, "INCLINATION": 65.197, "RA_OF_ASC_NODE": 78.7317, "ARG_OF_PERICENTER": 286.9932, "MEAN_ANOMALY": 72.9111, "EPHEMERIS_TYPE": 0, "CLASSIFICATION_TYPE": "U", "NORAD_CAT_ID": 57517, "ELEMENT_SET_NO": 999, "REV_AT_EPOCH": 1840, "BSTAR": 0, "MEAN_MOTION_DOT": -4.2e-07, "MEAN_MOTION_DDOT": 0}, "tle": {"line1": "1 57517U 23114A   25352.12023524 -.00000042  00000+0  00000+0 0  9997", "line2": "2 57517  65.1970  78.7317 0010731 286.9932  72.9111  2.13104044 18402"}}, "geometry": {"type": "Point", "coordinates": [107.25762068322328, 45.98071098281706]}}, {"type": "Feature", "properties": {"norad_id": 58654, "name": "BEIDOU-3 M28 (C50)", "group": "gnss", "lat": -24.343829698134883, "lon": -93.54755360636838, "alt_km": 21527.985638318456, "timestamp": "2025-12-18T15:47:11.465975+00:00", "meta": {"OBJECT_NAME": "BEIDOU-3 M28 (C50)", "OBJECT_ID": "2023-207A", "EPOCH": "2025-12-18T08:16:11.726688", "MEAN_MOTION": 1.86229841, "ECCENTRICITY": 0.00026244, "INCLINATION": 55.5892, "RA_OF_ASC_NODE": 68.4116, "ARG_OF_PERICENTER": 272.1246, "MEAN_ANOMALY": 87.875, "EPHEMERIS_TYPE": 0, "CLASSIFICATION_TYPE": "U", "NORAD_CAT_ID": 58654, "ELEMENT_SET_NO": 999, "REV_AT_EPOCH": 1347, "BSTAR": 0, "MEAN_MOTION_DOT": -6.6e-07, "MEAN_MOTION_DDOT": 0}, "tle": {"line1": "1 58654U 23207A   25352.34458017 -.00000066  00000+0  00000+0 0  9992", "line2": "2 58654  55.5892  68.4116 0002624 272.1246  87.8750  1.86229841 13479"}}, "geometry": {"type": "Point", "coordinates": [-93.54755360636838, -24.343829698134883]}}, {"type": "Feature", "properties": {"norad_id": 58655, "name": "BEIDOU-3 M26 (C48)", "group": "gnss", "lat": -11.777064477015887, "lon": 60.19870180220861, "alt_km": 21529.360870118242, "timestamp": "2025-12-18T15:47:11.465987+00:00", "meta": {"OBJECT_NAME": "BEIDOU-3 M26 (C48)", "OBJECT_ID": "2023-207B", "EPOCH": "2025-12-17T14:31:30.894816", "MEAN_MOTION": 1.86231346, "ECCENTRICITY": 0.0004016, "INCLINATION": 55.5906, "RA_OF_ASC_NODE": 68.4229, "ARG_OF_PERICENTER": 258.0544, "MEAN_ANOMALY": 101.9267, "EPHEMERIS_TYPE": 0, "CLASSIFICATION_TYPE": "U", "NORAD_CAT_ID": 58655, "ELEMENT_SET_NO": 999, "REV_AT_EPOCH": 1344, "BSTAR": 0, "MEAN_MOTION_DOT": -7.2e-07, "MEAN_MOTION_DDOT": 0}, "tle": {"line1": "1 58655U 23207B   25351.60521869 -.00000072  00000+0  00000+0 0  9994", "line2": "2 58655  55.5906  68.4229 0004016 258.0544 101.9267  1.86231346 13443"}}, "geometry": {"type": "Point", "coordinates": [60.19870180220861, -11.777064477015887]}}]}